start=new Date('2022-07-30T00:00:00.000Z').valueOf();
sats=[{"CENTER_NAME":"EARTH","EPHEMERIS_TYPE":"0","RA_OF_ASC_NODE":"304.4076","REF_FRAME":"TEME","TLE_LINE2":"2 52684  53.2174 304.4076 0001638  39.7883 310.5872 15.15908755 11654","ELEMENT_SET_NO":"999","DECAY_DATE":null,"EPOCH":"2022-07-29T22:00:00.999936","RCS_SIZE":"LARGE","OBJECT_NAME":"STARLINK-4014","FILE":"3524714","PERIAPSIS":"517.093","ECCENTRICITY":"0.00016380","COUNTRY_CODE":"US","CLASSIFICATION_TYPE":"U","INCLINATION":"53.2174","OBJECT_TYPE":"PAYLOAD","SEMIMAJOR_AXIS":"6896.358","NORAD_CAT_ID":"52684","MEAN_MOTION_DOT":"-0.01078895","BSTAR":"-0.06009100000000","TIME_SYSTEM":"UTC","MEAN_ANOMALY":"310.5872","MEAN_ELEMENT_THEORY":"SGP4","SITE":"AFETR","REV_AT_EPOCH":"1165","LAUNCH_DATE":"2022-05-18","GP_ID":"209108254","MEAN_MOTION_DDOT":"0.0000000000000","MEAN_MOTION":"15.15908755","OBJECT_ID":"2022-053AE","APOAPSIS":"519.353","ARG_OF_PERICENTER":"39.7883","PERIOD":"94.993","TLE_LINE1":"1 52684U 22053AE  22210.91667824 -.01078895  00000-0 -60091-1 0  9994"},{"EPOCH":"2022-07-29T22:00:00.999936","RCS_SIZE":"LARGE","OBJECT_NAME":"STARLINK-4029","ELEMENT_SET_NO":"999","DECAY_DATE":null,"REF_FRAME":"TEME","TLE_LINE2":"2 52685  53.2174 304.4254 0001616  45.8330  42.4604 15.17666087 11659","CENTER_NAME":"EARTH","EPHEMERIS_TYPE":"0","RA_OF_ASC_NODE":"304.4254","OBJECT_ID":"2022-053AF","ARG_OF_PERICENTER":"45.8330","APOAPSIS":"514.012","PERIOD":"94.883","TLE_LINE1":"1 52685U 22053AF  22210.91667824 -.01076900  00000-0 -57016-1 0  9993","GP_ID":"209110442","LAUNCH_DATE":"2022-05-18","MEAN_MOTION_DDOT":"0.0000000000000","MEAN_MOTION":"15.17666087","BSTAR":"-0.05701600000000","MEAN_MOTION_DOT":"-0.01076900","TIME_SYSTEM":"UTC","MEAN_ANOMALY":"42.4604","MEAN_ELEMENT_THEORY":"SGP4","SITE":"AFETR","REV_AT_EPOCH":"1165","FILE":"3524815","PERIAPSIS":"511.785","ECCENTRICITY":"0.00016160","COUNTRY_CODE":"US","CLASSIFICATION_TYPE":"U","INCLINATION":"53.2174","OBJECT_TYPE":"PAYLOAD","NORAD_CAT_ID":"52685","SEMIMAJOR_AXIS":"6891.033"},{"MEAN_MOTION":"15.16793945","MEAN_MOTION_DDOT":"0.0000000000000","LAUNCH_DATE":"2022-05-18","GP_ID":"209108261","TLE_LINE1":"1 52686U 22053AG  22210.91667824 -.01078005  00000-0 -58533-1 0  9997","PERIOD":"94.937","APOAPSIS":"516.614","ARG_OF_PERICENTER":"44.1810","OBJECT_ID":"2022-053AG","OBJECT_TYPE":"PAYLOAD","NORAD_CAT_ID":"52686","SEMIMAJOR_AXIS":"6893.675","CLASSIFICATION_TYPE":"U","INCLINATION":"53.2174","COUNTRY_CODE":"US","FILE":"3524715","PERIAPSIS":"514.466","ECCENTRICITY":"0.00015580","REV_AT_EPOCH":"1165","MEAN_ELEMENT_THEORY":"SGP4","SITE":"AFETR","TIME_SYSTEM":"UTC","MEAN_ANOMALY":"355.6824","MEAN_MOTION_DOT":"-0.01078005","BSTAR":"-0.05853300000000","DECAY_DATE":null,"ELEMENT_SET_NO":"999","OBJECT_NAME":"STARLINK-4005","RCS_SIZE":"LARGE","EPOCH":"2022-07-29T22:00:00.999936","RA_OF_ASC_NODE":"304.4171","EPHEMERIS_TYPE":"0","CENTER_NAME":"EARTH","TLE_LINE2":"2 52686  53.2174 304.4171 0001558  44.1810 355.6824 15.16793945 11654","REF_FRAME":"TEME"},{"ELEMENT_SET_NO":"999","DECAY_DATE":null,"RCS_SIZE":"LARGE","EPOCH":"2022-07-29T22:00:00.999936","OBJECT_NAME":"STARLINK-3981","CENTER_NAME":"EARTH","RA_OF_ASC_NODE":"304.4281","EPHEMERIS_TYPE":"0","REF_FRAME":"TEME","TLE_LINE2":"2 52687  53.2174 304.4281 0001739  41.9585  62.1484 15.17961196 11661","LAUNCH_DATE":"2022-05-18","GP_ID":"209108266","MEAN_MOTION":"15.17961196","MEAN_MOTION_DDOT":"0.0000000000000","OBJECT_ID":"2022-053AH","TLE_LINE1":"1 52687U 22053AH  22210.91667824 -.01076650  00000-0 -56516-1 0  9991","PERIOD":"94.864","ARG_OF_PERICENTER":"41.9585","APOAPSIS":"513.203","COUNTRY_CODE":"US","FILE":"3524715","PERIAPSIS":"510.807","ECCENTRICITY":"0.00017390","SEMIMAJOR_AXIS":"6890.140","OBJECT_TYPE":"PAYLOAD","NORAD_CAT_ID":"52687","INCLINATION":"53.2174","CLASSIFICATION_TYPE":"U","MEAN_ANOMALY":"62.1484","TIME_SYSTEM":"UTC","MEAN_MOTION_DOT":"-0.01076650","BSTAR":"-0.05651600000000","REV_AT_EPOCH":"1166","SITE":"AFETR","MEAN_ELEMENT_THEORY":"SGP4"},{"OBJECT_ID":"2022-053AJ","PERIOD":"94.905","TLE_LINE1":"1 52688U 22053AJ  22210.91667824 -.01077356  00000-0 -57641-1 0  9996","ARG_OF_PERICENTER":"41.2352","APOAPSIS":"515.149","GP_ID":"209136408","LAUNCH_DATE":"2022-05-18","MEAN_MOTION":"15.17303904","MEAN_MOTION_DDOT":"0.0000000000000","TIME_SYSTEM":"UTC","MEAN_ANOMALY":"26.8086","MEAN_MOTION_DOT":"-0.01077356","BSTAR":"-0.05764100000000","REV_AT_EPOCH":"130","MEAN_ELEMENT_THEORY":"SGP4","SITE":"AFETR","COUNTRY_CODE":"US","FILE":"3524848","PERIAPSIS":"512.841","ECCENTRICITY":"0.00016750","OBJECT_TYPE":"PAYLOAD","SEMIMAJOR_AXIS":"6892.130","NORAD_CAT_ID":"52688","CLASSIFICATION_TYPE":"U","INCLINATION":"53.2174","RCS_SIZE":"LARGE","EPOCH":"2022-07-29T22:00:00.999936","OBJECT_NAME":"STARLINK-4032","ELEMENT_SET_NO":"999","DECAY_DATE":null,"REF_FRAME":"TEME","TLE_LINE2":"2 52688  53.2174 304.4221 0001675  41.2352  26.8086 15.17303904  1302","CENTER_NAME":"EARTH","RA_OF_ASC_NODE":"304.4221","EPHEMERIS_TYPE":"0"},{"TLE_LINE2":"2 52689  53.2174 304.4357 0001685  48.3628 102.3585 15.18846971 11669","REF_FRAME":"TEME","EPHEMERIS_TYPE":"0","RA_OF_ASC_NODE":"304.4357","CENTER_NAME":"EARTH","OBJECT_NAME":"STARLINK-4078","EPOCH":"2022-07-29T22:00:00.999936","RCS_SIZE":"LARGE","DECAY_DATE":null,"ELEMENT_SET_NO":"999","SITE":"AFETR","MEAN_ELEMENT_THEORY":"SGP4","REV_AT_EPOCH":"1166","BSTAR":"-0.05508500000000","MEAN_MOTION_DOT":"-0.01063240","MEAN_ANOMALY":"102.3585","TIME_SYSTEM":"UTC","INCLINATION":"53.2174","CLASSIFICATION_TYPE":"U","OBJECT_TYPE":"PAYLOAD","NORAD_CAT_ID":"52689","SEMIMAJOR_AXIS":"6887.461","FILE":"3524715","ECCENTRICITY":"0.00016850","PERIAPSIS":"508.166","COUNTRY_CODE":"US","ARG_OF_PERICENTER":"48.3628","APOAPSIS":"510.487","PERIOD":"94.809","TLE_LINE1":"1 52689U 22053AK  22210.91667824 -.01063240  00000-0 -55085-1 0  9994","OBJECT_ID":"2022-053AK","MEAN_MOTION_DDOT":"0.0000000000000","MEAN_MOTION":"15.18846971","GP_ID":"209108265","LAUNCH_DATE":"2022-05-18"},{"FILE":"3524715","ECCENTRICITY":"0.00017020","PERIAPSIS":"512.619","COUNTRY_CODE":"US","CLASSIFICATION_TYPE":"U","INCLINATION":"53.2174","OBJECT_TYPE":"PAYLOAD","SEMIMAJOR_AXIS":"6891.927","NORAD_CAT_ID":"52690","MEAN_MOTION_DOT":"-0.01077247","BSTAR":"-0.05752300000000","TIME_SYSTEM":"UTC","MEAN_ANOMALY":"31.7994","MEAN_ELEMENT_THEORY":"SGP4","SITE":"AFETR","REV_AT_EPOCH":"1165","GP_ID":"209108001","LAUNCH_DATE":"2022-05-18","MEAN_MOTION_DDOT":"0.0000000000000","MEAN_MOTION":"15.17371005","OBJECT_ID":"2022-053AL","ARG_OF_PERICENTER":"40.5427","APOAPSIS":"514.965","PERIOD":"94.901","TLE_LINE1":"1 52690U 22053AL  22210.91667824 -.01077247  00000-0 -57523-1 0  9997","CENTER_NAME":"EARTH","EPHEMERIS_TYPE":"0","RA_OF_ASC_NODE":"304.4226","REF_FRAME":"TEME","TLE_LINE2":"2 52690  53.2174 304.4226 0001702  40.5427  31.7994 15.17371005 11655","ELEMENT_SET_NO":"999","DECAY_DATE":null,"EPOCH":"2022-07-29T22:00:00.999936","RCS_SIZE":"LARGE","OBJECT_NAME":"STARLINK-4035"},{"RA_OF_ASC_NODE":"304.4380","EPHEMERIS_TYPE":"0","CENTER_NAME":"EARTH","TLE_LINE2":"2 52691  53.2174 304.4380 0001771  44.9647 121.0194 15.19142301 11668","REF_FRAME":"TEME","DECAY_DATE":null,"ELEMENT_SET_NO":"999","OBJECT_NAME":"STARLINK-3945","RCS_SIZE":"LARGE","EPOCH":"2022-07-29T22:00:00.999936","OBJECT_TYPE":"PAYLOAD","NORAD_CAT_ID":"52691","SEMIMAJOR_AXIS":"6886.568","CLASSIFICATION_TYPE":"U","INCLINATION":"53.2174","COUNTRY_CODE":"US","FILE":"3524730","PERIAPSIS":"507.214","ECCENTRICITY":"0.00017710","REV_AT_EPOCH":"1166","MEAN_ELEMENT_THEORY":"SGP4","SITE":"AFETR","TIME_SYSTEM":"UTC","MEAN_ANOMALY":"121.0194","BSTAR":"-0.05462200000000","MEAN_MOTION_DOT":"-0.01063421","MEAN_MOTION":"15.19142301","MEAN_MOTION_DDOT":"0.0000000000000","LAUNCH_DATE":"2022-05-18","GP_ID":"209108274","PERIOD":"94.790","TLE_LINE1":"1 52691U 22053AM  22210.91667824 -.01063421  00000-0 -54622-1 0  9994","APOAPSIS":"509.653","ARG_OF_PERICENTER":"44.9647","OBJECT_ID":"2022-053AM"},{"ARG_OF_PERICENTER":"52.9449","APOAPSIS":"512.183","PERIOD":"94.846","TLE_LINE1":"1 52692U 22053AN  22210.91667824 -.01076606  00000-0 -56034-1 0  9993","OBJECT_ID":"2022-053AN","MEAN_MOTION_DDOT":"0.0000000000000","MEAN_MOTION":"15.18256445","LAUNCH_DATE":"2022-05-18","GP_ID":"209108280","MEAN_ELEMENT_THEORY":"SGP4","SITE":"AFETR","REV_AT_EPOCH":"1166","BSTAR":"-0.05603400000000","MEAN_MOTION_DOT":"-0.01076606","TIME_SYSTEM":"UTC","MEAN_ANOMALY":"66.8379","CLASSIFICATION_TYPE":"U","INCLINATION":"53.2174","SEMIMAJOR_AXIS":"6889.247","OBJECT_TYPE":"PAYLOAD","NORAD_CAT_ID":"52692","FILE":"3524730","PERIAPSIS":"510.041","ECCENTRICITY":"0.00015540","COUNTRY_CODE":"US","OBJECT_NAME":"STARLINK-3993","EPOCH":"2022-07-29T22:00:00.999936","RCS_SIZE":"LARGE","DECAY_DATE":null,"ELEMENT_SET_NO":"999","TLE_LINE2":"2 52692  53.2174 304.4308 0001554  52.9449  66.8379 15.18256445 11662","REF_FRAME":"TEME","EPHEMERIS_TYPE":"0","RA_OF_ASC_NODE":"304.4308","CENTER_NAME":"EARTH"},{"DECAY_DATE":null,"ELEMENT_SET_NO":"999","OBJECT_NAME":"STARLINK-3946","EPOCH":"2022-07-29T22:00:00.999936","RCS_SIZE":"LARGE","EPHEMERIS_TYPE":"0","RA_OF_ASC_NODE":"304.4424","CENTER_NAME":"EARTH","TLE_LINE2":"2 52693  53.2174 304.4424 0001704  48.4684 147.6280 15.19733174 11669","REF_FRAME":"TEME","MEAN_MOTION_DDOT":"0.0000000000000","MEAN_MOTION":"15.19733174","LAUNCH_DATE":"2022-05-18","GP_ID":"209108016","ARG_OF_PERICENTER":"48.4684","APOAPSIS":"507.822","TLE_LINE1":"1 52693U 22053AP  22210.91667824 -.01064152  00000-0 -53728-1 0  9994","PERIOD":"94.753","OBJECT_ID":"2022-053AP","CLASSIFICATION_TYPE":"U","INCLINATION":"53.2174","SEMIMAJOR_AXIS":"6884.783","OBJECT_TYPE":"PAYLOAD","NORAD_CAT_ID":"52693","FILE":"3524730","PERIAPSIS":"505.475","ECCENTRICITY":"0.00017040","COUNTRY_CODE":"US","MEAN_ELEMENT_THEORY":"SGP4","SITE":"AFETR","REV_AT_EPOCH":"1166","BSTAR":"-0.05372800000000","MEAN_MOTION_DOT":"-0.01064152","TIME_SYSTEM":"UTC","MEAN_ANOMALY":"147.6280"}];
